[{"OBJECT_NAME":"METEOR-M2 4","OBJECT_ID":"2024-039A","EPOCH":"2026-04-05T14:10:02.148096","MEAN_MOTION":14.22421606,"ECCENTRICITY":0.00076101,"INCLINATION":98.6949,"RA_OF_ASC_NODE":55.8273,"ARG_OF_PERICENTER":28.1122,"MEAN_ANOMALY":332.0466,"EPHEMERIS_TYPE":0,"CLASSIFICATION_TYPE":"U","NORAD_CAT_ID":59051,"ELEMENT_SET_NO":999,"REV_AT_EPOCH":10894,"BSTAR":4.2203362e-5,"MEAN_MOTION_DOT":5.0e-7,"MEAN_MOTION_DDOT":0},{"OBJECT_NAME":"GOES 19","OBJECT_ID":"2024-119A","EPOCH":"2026-04-05T12:23:19.527936","MEAN_MOTION":1.00271467,"ECCENTRICITY":0.00010326,"INCLINATION":0.0443,"RA_OF_ASC_NODE":41.5874,"ARG_OF_PERICENTER":22.6159,"MEAN_ANOMALY":240.2467,"EPHEMERIS_TYPE":0,"CLASSIFICATION_TYPE":"U","NORAD_CAT_ID":60133,"ELEMENT_SET_NO":999,"REV_AT_EPOCH":623,"BSTAR":0,"MEAN_MOTION_DOT":-2.47e-6,"MEAN_MOTION_DDOT":0},{"OBJECT_NAME":"FENGYUN 3H","OBJECT_ID":"2025-219A","EPOCH":"2026-04-05T14:26:55.477536","MEAN_MOTION":14.19940204,"ECCENTRICITY":7.035e-5,"INCLINATION":98.672,"RA_OF_ASC_NODE":37.8025,"ARG_OF_PERICENTER":69.4838,"MEAN_ANOMALY":290.6414,"EPHEMERIS_TYPE":0,"CLASSIFICATION_TYPE":"U","NORAD_CAT_ID":65815,"ELEMENT_SET_NO":999,"REV_AT_EPOCH":2708,"BSTAR":8.5454943e-5,"MEAN_MOTION_DOT":1.38e-6,"MEAN_MOTION_DDOT":0}]
