METEOR-M2 4             
1 59051U 24039A   26095.59030264  .00000050  00000+0  42203-4 0  9998
2 59051  98.6949  55.8273 0007610  28.1122 332.0466 14.22421606108941
GOES 19                 
1 60133U 24119A   26095.51619824 -.00000247  00000+0  00000+0 0  9990
2 60133   0.0443  41.5874 0001032  22.6159 240.2467  1.00271467  6230
FENGYUN 3H              
1 65815U 25219A   26095.60203099  .00000138  00000+0  85455-4 0  9997
2 65815  98.6720  37.8025 0000703  69.4838 290.6414 14.19940204 27089
